H1 CPF  1  DLR 2021 03 21 10  5802 technosat            
H2  1704205 6203    42829 2021 03 21 00 00 00 2021 03 28 00 00 00    60 1 1  0 0 0
H9
10 0 59295  21600.000000  0      -2667498.498      -3689093.676       5265891.083
10 0 59295  21660.000000  0      -2949718.037      -3888690.948       4964568.440
10 0 59295  21720.000000  0      -3221145.532      -4069444.528       4642129.279
10 0 59295  21780.000000  0      -3480467.803      -4230692.325       4299946.229
10 0 59295  21840.000000  0      -3726417.937      -4371866.397       3939476.123
10 0 59295  21900.000000  0      -3957781.544      -4492494.989       3562253.713
10 0 59295  21960.000000  0      -4173402.820      -4592204.121       3169885.116
10 0 59295  22020.000000  0      -4372190.423      -4670718.743       2764040.881
10 0 59295  22080.000000  0      -4553123.074      -4727863.396       2346448.713
10 0 59295  22140.000000  0      -4715254.841      -4763562.332       1918885.905
10 0 59295  22200.000000  0      -4857720.061      -4777839.143       1483171.549
10 0 59295  22260.000000  0      -4979737.890      -4770815.899       1041158.587
10 0 59295  22320.000000  0      -5080616.474      -4742711.826        594725.673
10 0 59295  22380.000000  0      -5159756.679      -4693841.467        145768.936
10 0 59295  22440.000000  0      -5216655.386      -4624612.412       -303806.329
10 0 59295  22500.000000  0      -5250908.315      -4535522.569       -752094.021
10 0 59295  22560.000000  0      -5262212.339      -4427156.978      -1197195.587
10 0 59295  22620.000000  0      -5250367.294      -4300184.205      -1637228.286
10 0 59295  22680.000000  0      -5215277.259      -4155352.312      -2070333.336
10 0 59295  22740.000000  0      -5156951.309      -3993484.510      -2494683.837
10 0 59295  22800.000000  0      -5075503.802      -3815474.515      -2908492.519
10 0 59295  22860.000000  0      -4971154.144      -3622281.586      -3310019.255
10 0 59295  22920.000000  0      -4844226.095      -3414925.343      -3697578.281
10 0 59295  22980.000000  0      -4695146.592      -3194480.352      -4069545.177
10 0 59295  23040.000000  0      -4524444.066      -2962070.505      -4424363.507
10 0 59295  23100.000000  0      -4332746.315      -2718863.233      -4760551.088
10 0 59295  23160.000000  0      -4120777.929      -2466063.626      -5076705.895
10 0 59295  23220.000000  0      -3889357.306      -2204908.459      -5371511.584
10 0 59295  23280.000000  0      -3639393.275      -1936660.150      -5643742.615
10 0 59295  23340.000000  0      -3371881.340      -1662600.684      -5892268.966
10 0 59295  23400.000000  0      -3087899.571      -1384025.543      -6116060.420
10 0 59295  23460.000000  0      -2788604.139      -1102237.668      -6314190.456
10 0 59295  23520.000000  0      -2475224.521       -818541.477      -6485839.681
10 0 59295  23580.000000  0      -2149058.398       -534236.975      -6630298.825
10 0 59295  23640.000000  0      -1811466.291       -250613.963      -6746971.263
10 0 59295  23700.000000  0      -1463866.012         31053.595      -6835375.096
10 0 59295  23760.000000  0      -1107726.915        309513.039      -6895144.911
10 0 59295  23820.000000  0       -744563.863        583538.400      -6926033.171
10 0 59295  23880.000000  0       -375930.977        851935.645      -6927911.096
10 0 59295  23940.000000  0         -3415.259       1113547.666      -6900769.074
10 0 59295  24000.000000  0        371369.914       1367259.013      -6844716.790
10 0 59295  24060.000000  0        746791.535       1612000.531      -6759983.058
10 0 59295  24120.000000  0       1121203.975       1846753.828      -6646915.009
10 0 59295  24180.000000  0       1492955.933       2070555.391      -6505976.771
10 0 59295  24240.000000  0       1860397.458       2282500.475      -6337747.916
10 0 59295  24300.000000  0       2221887.180       2481746.794      -6142921.425
10 0 59295  24360.000000  0       2575799.506       2667517.850      -5922301.080
10 0 59295  24420.000000  0       2920531.732       2839105.949      -5676798.519
10 0 59295  24480.000000  0       3254511.204       2995874.964      -5407429.966
10 0 59295  24540.000000  0       3576202.524       3137262.833      -5115312.511
10 0 59295  24600.000000  0       3884114.696       3262783.709      -4801659.851
10 0 59295  24660.000000  0       4176808.094       3372029.733      -4467777.649
10 0 59295  24720.000000  0       4452901.397       3464672.488      -4115058.488
10 0 59295  24780.000000  0       4711078.298       3540464.044      -3744976.325
10 0 59295  24840.000000  0       4950093.936       3599237.623      -3359080.598
10 0 59295  24900.000000  0       5168781.113       3640907.947      -2958990.008
10 0 59295  24960.000000  0       5366056.250       3665471.195      -2546385.913
10 0 59295  25020.000000  0       5540925.061       3673004.551      -2123005.353
10 0 59295  25080.000000  0       5692487.821       3663665.311      -1690633.745
10 0 59295  25140.000000  0       5819944.210       3637689.607      -1251097.331
10 0 59295  25200.000000  0       5922597.720       3595390.745       -806255.409
10 0 59295  25260.000000  0       5999859.656       3537157.167       -357992.357
10 0 59295  25320.000000  0       6051252.621       3463450.011         91790.551
10 0 59295  25380.000000  0       6076413.483       3374800.298        541183.418
10 0 59295  25440.000000  0       6075095.790       3271805.767        988276.122
10 0 59295  25500.000000  0       6047171.545       3155127.371       1431166.709
10 0 59295  25560.000000  0       5992632.448       3025485.492       1867969.745
10 0 59295  25620.000000  0       5911590.601       2883655.884       2296824.651
10 0 59295  25680.000000  0       5804278.588       2730465.299       2715903.982
10 0 59295  25740.000000  0       5671048.917       2566786.853       3123421.527
10 0 59295  25800.000000  0       5512372.839       2393535.188       3517640.180
10 0 59295  25860.000000  0       5328838.606       2211661.486       3896879.575
10 0 59295  25920.000000  0       5121149.090       2022148.321       4259523.480
10 0 59295  25980.000000  0       4890118.867       1826004.370       4604026.679
10 0 59295  26040.000000  0       4636671.004       1624259.072       4928921.602
10 0 59295  26100.000000  0       4361833.187       1417957.264       5232824.823
10 0 59295  26160.000000  0       4066733.214       1208153.747       5514443.050
10 0 59295  26220.000000  0       3752594.023        995907.853       5772578.611
10 0 59295  26280.000000  0       3420728.289        782278.050       6006134.410
10 0 59295  26340.000000  0       3072532.711        568316.660       6214118.399
10 0 59295  26400.000000  0       2709481.989        355064.738       6395647.676
10 0 59295  26460.000000  0       2333122.407        143546.990       6549952.168
10 0 59295  26520.000000  0       1945065.095        -65233.162       6676377.800
10 0 59295  26580.000000  0       1546979.001       -270298.344       6774389.226
10 0 59295  26640.000000  0       1140583.494       -470701.861       6843572.062
10 0 59295  26700.000000  0        727640.758       -665532.109       6883634.446
10 0 59295  26760.000000  0        309948.100       -853916.705       6894408.168
10 0 59295  26820.000000  0       -110669.993      -1035026.430       6875849.362
10 0 59295  26880.000000  0       -532369.891      -1208078.923       6828038.593
10 0 59295  26940.000000  0       -953296.984      -1372342.111       6751180.492
10 0 59295  27000.000000  0      -1371593.899      -1527137.323       6645602.822
10 0 59295  27060.000000  0      -1785408.706      -1671842.086       6511755.079
10 0 59295  27120.000000  0      -2192903.126      -1805892.609       6350206.656
10 0 59295  27180.000000  0      -2592260.718      -1928785.979       6161644.607
10 0 59295  27240.000000  0      -2981695.155      -2040082.115       5946870.974
10 0 59295  27300.000000  0      -3359458.505      -2139405.398       5706799.474
10 0 59295  27360.000000  0      -3723849.269      -2226445.929       5442451.576
10 0 59295  27420.000000  0      -4073220.182      -2300960.447       5154952.226
10 0 59295  27480.000000  0      -4405985.907      -2362772.923       4845525.112
10 0 59295  27540.000000  0      -4720630.442      -2411774.762       4515487.405
10 0 59295  27600.000000  0      -5015714.197      -2447924.635       4166244.149
10 0 59295  27660.000000  0      -5289880.789      -2471247.983       3799282.260
10 0 59295  27720.000000  0      -5541863.471      -2481836.170       3416164.166
10 0 59295  27780.000000  0      -5770491.208      -2479845.304       3018521.103
10 0 59295  27840.000000  0      -5974694.310      -2465494.748       2608046.069
10 0 59295  27900.000000  0      -6153509.673      -2439065.337       2186486.500
10 0 59295  27960.000000  0      -6306085.559      -2400897.257       1755636.583
10 0 59295  28020.000000  0      -6431685.730      -2351387.537       1317329.263
10 0 59295  28080.000000  0      -6529692.925      -2290987.264        873428.225
10 0 59295  28140.000000  0      -6599611.905      -2220198.571        425819.784
10 0 59295  28200.000000  0      -6641071.952      -2139571.352        -23595.407
10 0 59295  28260.000000  0      -6653828.694      -2049699.719       -472910.741
10 0 59295  28320.000000  0      -6637765.249      -1951218.249       -920222.007
10 0 59295  28380.000000  0      -6592892.775      -1844798.091      -1363635.672
10 0 59295  28440.000000  0      -6519350.409      -1731142.884      -1801277.068
10 0 59295  28500.000000  0      -6417404.586      -1610984.554      -2231298.449
10 0 59295  28560.000000  0      -6287447.755      -1485079.017      -2651886.860
10 0 59295  28620.000000  0      -6129996.527      -1354201.799      -3061271.816
10 0 59295  28680.000000  0      -5945689.242      -1219143.598      -3457732.740
10 0 59295  28740.000000  0      -5735282.993      -1080705.826      -3839606.105
99
